{"type": "FeatureCollection", "features": [{"type": "Feature", "properties": {"kind": "water_hazard", "osm_id": "256235043"}, "geometry": {"type": "Polygon", "coordinates": [[[15.2131634, 59.2510529], [15.2132807, 59.2510429], [15.2134044, 59.2510229], [15.2135021, 59.250983], [15.2135282, 59.250933], [15.2135217, 59.2508498], [15.2135151, 59.2507665], [15.2135217, 59.2506932], [15.2135477, 59.2506333], [15.2135933, 59.2505867], [15.2137366, 59.2505234], [15.2138343, 59.2505134], [15.2139125, 59.2505301], [15.2140362, 59.25056], [15.2142056, 59.25057], [15.2142968, 59.25057], [15.214401, 59.2505301], [15.2145117, 59.2504968], [15.2145964, 59.2505101], [15.2146876, 59.2505434], [15.2148178, 59.2505734], [15.2149155, 59.2506], [15.2149872, 59.25058], [15.2149872, 59.25055], [15.2149872, 59.2505101], [15.214909, 59.2504701], [15.2148374, 59.2504368], [15.2147918, 59.2503835], [15.2147527, 59.2503469], [15.2147136, 59.2503136], [15.2146224, 59.2502936], [15.2145573, 59.2502969], [15.2144856, 59.2503402], [15.2144075, 59.2503769], [15.2143358, 59.2504002], [15.2142642, 59.2504168], [15.2141535, 59.2504235], [15.2140818, 59.2504168], [15.2140297, 59.2503902], [15.2139906, 59.2503436], [15.2139646, 59.2502803], [15.213919, 59.250227], [15.2138473, 59.2501904], [15.2137301, 59.2501671], [15.2135672, 59.2501438], [15.2134956, 59.2501438], [15.2134305, 59.2501704], [15.2133653, 59.2502303], [15.2133197, 59.2502736], [15.2132611, 59.2503069], [15.2131634, 59.2503269], [15.2130918, 59.2503436], [15.2130136, 59.2503669], [15.2129485, 59.2504202], [15.2129615, 59.2505134], [15.2130527, 59.2505434], [15.2131374, 59.2505767], [15.2132155, 59.2506166], [15.2132741, 59.2506533], [15.2132676, 59.2507099], [15.2132155, 59.2507732], [15.2131764, 59.2507965], [15.2130983, 59.2508264], [15.2130331, 59.2508631], [15.212968, 59.2509164], [15.212955, 59.2509663], [15.2129745, 59.2510163], [15.2130722, 59.2510529], [15.2131634, 59.2510529]]]}}, {"type": "Feature", "properties": {"kind": "bunker", "osm_id": "492158629"}, "geometry": {"type": "Polygon", "coordinates": [[[15.2002437, 59.2488506], [15.2002161, 59.248873], [15.2001716, 59.2488863], [15.2000937, 59.2489002], [15.2000695, 59.2488959], [15.2000602, 59.2488827], [15.2000419, 59.2488753], [15.1999969, 59.2488751], [15.199964, 59.2488677], [15.199966, 59.2488515], [15.2000062, 59.2488228], [15.2000374, 59.2488187], [15.2001104, 59.2488239], [15.2001487, 59.2488246], [15.2001725, 59.2488173], [15.200221, 59.2488229], [15.2002427, 59.2488301], [15.2002437, 59.2488506]]]}}, {"type": "Feature", "properties": {"kind": "bunker", "osm_id": "492158715"}, "geometry": {"type": "Polygon", "coordinates": [[[15.2004465, 59.2488482], [15.2004844, 59.248858], [15.2004952, 59.2488734], [15.2004952, 59.2488873], [15.2004794, 59.2489144], [15.2004835, 59.2489469], [15.2004997, 59.2489738], [15.2005082, 59.2489979], [15.2005167, 59.2490255], [15.2005109, 59.24905], [15.2004892, 59.2490774], [15.2004676, 59.2490931], [15.2004552, 59.2491052], [15.2004036, 59.2491131], [15.2003813, 59.2490963], [15.2003844, 59.2490837], [15.2004029, 59.2490726], [15.2004337, 59.2490569], [15.2004491, 59.2490459], [15.2004491, 59.2490254], [15.2004209, 59.2490177], [15.2003946, 59.2490079], [15.2003522, 59.2489944], [15.200353, 59.2489816], [15.2003539, 59.2489662], [15.200357, 59.2489433], [15.2003801, 59.2489159], [15.200385, 59.2488894], [15.2003925, 59.2488677], [15.2004136, 59.2488554], [15.2004465, 59.2488482]]]}}, {"type": "Feature", "properties": {"kind": "tee", "osm_id": "492159175"}, "geometry": {"type": "Polygon", "coordinates": [[[15.2036807, 59.246746], [15.2035535, 59.2467004], [15.2029135, 59.2471351], [15.2030368, 59.2471824], [15.2036807, 59.246746]]]}}, {"type": "Feature", "properties": {"kind": "fairway", "osm_id": "492159383"}, "geometry": {"type": "Polygon", "coordinates": [[[15.202134, 59.2475652], [15.2022419, 59.2475558], [15.2023435, 59.2475873], [15.2024329, 59.2476235], [15.2025315, 59.2476771], [15.2024545, 59.2477732], [15.2023281, 59.2478535], [15.2021587, 59.2479433], [15.20198, 59.2480268], [15.2018845, 59.2481119], [15.2017951, 59.2482442], [15.201678, 59.248364], [15.2015425, 59.2484601], [15.2013761, 59.248542], [15.2011851, 59.2486334], [15.2010772, 59.24872], [15.2009232, 59.2488192], [15.2007814, 59.248898], [15.2006736, 59.2489988], [15.2006274, 59.2491075], [15.2005781, 59.249169], [15.2004518, 59.2492178], [15.200233, 59.2492446], [15.2000728, 59.2492399], [15.1998818, 59.249221], [15.1997863, 59.2491816], [15.1997062, 59.2491249], [15.1997339, 59.2490697], [15.1997709, 59.2490351], [15.1997585, 59.2490067], [15.1997308, 59.248991], [15.1997308, 59.2489532], [15.1997924, 59.2489106], [15.199891, 59.2488586], [15.2000266, 59.2487893], [15.2001498, 59.2487279], [15.2002176, 59.2486853], [15.2003501, 59.2486192], [15.2004826, 59.2485483], [15.200575, 59.2484774], [15.2006859, 59.2484427], [15.2008492, 59.2483892], [15.2009632, 59.2483482], [15.2011358, 59.248334], [15.2012313, 59.2483356], [15.2013545, 59.2483293], [15.2014315, 59.2482962], [15.2014808, 59.2482364], [15.2014747, 59.2481292], [15.20145, 59.2480473], [15.2014624, 59.2479685], [15.2015301, 59.2478882], [15.2016472, 59.2478078], [15.2017674, 59.2477322], [15.2019091, 59.2476629], [15.2020139, 59.2476093], [15.202134, 59.2475652]]]}}, {"type": "Feature", "properties": {"kind": "green", "osm_id": "492159451"}, "geometry": {"type": "Polygon", "coordinates": [[[15.199891, 59.2491217], [15.1999773, 59.2491579], [15.2000605, 59.2491516], [15.2001344, 59.2491233], [15.2002022, 59.249076], [15.2002053, 59.2490351], [15.2001868, 59.2490099], [15.2001067, 59.2489768], [15.2000081, 59.2489579], [15.1999434, 59.2489516], [15.199891, 59.248961], [15.1998294, 59.2489784], [15.1998017, 59.2490146], [15.1998017, 59.2490587], [15.1998479, 59.2490965], [15.199891, 59.2491217]]]}}, {"type": "Feature", "properties": {"kind": "tee", "osm_id": "492159572"}, "geometry": {"type": "Polygon", "coordinates": [[[15.2019202, 59.2449171], [15.2020633, 59.2449076], [15.2021561, 59.2452714], [15.2020129, 59.2452809], [15.2019202, 59.2449171]]]}}, {"type": "Feature", "properties": {"kind": "bunker", "osm_id": "492159734"}, "geometry": {"type": "Polygon", "coordinates": [[[15.2020947, 59.2462531], [15.2021764, 59.2462673], [15.2021964, 59.2462697], [15.2022056, 59.246261], [15.2022087, 59.2462539], [15.2022102, 59.2462421], [15.2022118, 59.2462295], [15.2022257, 59.2462114], [15.2022426, 59.2461933], [15.202238, 59.2461814], [15.202221, 59.2461696], [15.2021979, 59.2461625], [15.2021733, 59.2461625], [15.2021532, 59.2461704], [15.2021301, 59.2461862], [15.2021209, 59.2462027], [15.2021101, 59.2462153], [15.2020901, 59.2462208], [15.2020793, 59.2462382], [15.2020947, 59.2462531]]]}}, {"type": "Feature", "properties": {"kind": "bunker", "osm_id": "492160173"}, "geometry": {"type": "Polygon", "coordinates": [[[15.2021177, 59.246372], [15.20213, 59.2463768], [15.2021408, 59.246387], [15.2021454, 59.2463964], [15.2021593, 59.2464067], [15.2021777, 59.2464083], [15.2021947, 59.2464012], [15.2021978, 59.2463894], [15.2021931, 59.2463791], [15.2021931, 59.2463705], [15.2021962, 59.2463602], [15.2022116, 59.2463531], [15.2022101, 59.2463437], [15.2021916, 59.2463334], [15.20217, 59.2463311], [15.2021377, 59.2463382], [15.2021177, 59.2463429], [15.2020961, 59.2463484], [15.2020961, 59.2463578], [15.2021038, 59.2463657], [15.2021177, 59.246372]]]}}, {"type": "Feature", "properties": {"kind": "green", "osm_id": "492160190"}, "geometry": {"type": "Polygon", "coordinates": [[[15.202271, 59.2462492], [15.2022726, 59.2462933], [15.2022895, 59.2463319], [15.2023018, 59.2463666], [15.2023188, 59.2464122], [15.2023557, 59.2464319], [15.2024143, 59.2464453], [15.2024651, 59.2464453], [15.2025329, 59.246428], [15.2025868, 59.2463996], [15.2026176, 59.2463729], [15.2026238, 59.246335], [15.2026038, 59.2462941], [15.202576, 59.2462571], [15.2025514, 59.2462311], [15.2025067, 59.2462059], [15.2024605, 59.2461956], [15.2023989, 59.2461948], [15.2023403, 59.2462051], [15.2023018, 59.2462232], [15.202271, 59.2462492]]]}}, {"type": "Feature", "properties": {"kind": "tee", "osm_id": "498272356"}, "geometry": {"type": "Polygon", "coordinates": [[[15.2008043, 59.2510594], [15.2008048, 59.2510052], [15.2012379, 59.2510063], [15.2012374, 59.2510605], [15.2008043, 59.2510594]]]}}, {"type": "Feature", "properties": {"kind": "tee", "osm_id": "498272360"}, "geometry": {"type": "Polygon", "coordinates": [[[15.2038367, 59.250578], [15.2038371, 59.2505065], [15.2034303, 59.2505058], [15.2034299, 59.2505774], [15.2038367, 59.250578]]]}}, {"type": "Feature", "properties": {"kind": "fairway", "osm_id": "498272361"}, "geometry": {"type": "Polygon", "coordinates": [[[15.2012118, 59.250562], [15.2010884, 59.2505898], [15.2009736, 59.2505757], [15.2009234, 59.2505276], [15.2009053, 59.250493], [15.2009459, 59.2504493], [15.2010224, 59.2504101], [15.2011395, 59.2503917], [15.2012611, 59.2504055], [15.2015887, 59.2503941], [15.2017909, 59.2503505], [15.2021495, 59.2503426], [15.2023678, 59.2503299], [15.2026955, 59.2503531], [15.2029592, 59.2503516], [15.2030653, 59.2504427], [15.2030777, 59.2505489], [15.203011, 59.2506063], [15.2029071, 59.2506343], [15.2027059, 59.2506466], [15.2024254, 59.2506541], [15.2020135, 59.250636], [15.2016759, 59.250587], [15.2014547, 59.2504906], [15.2013546, 59.2504936], [15.2012118, 59.250562]]]}}, {"type": "Feature", "properties": {"kind": "bunker", "osm_id": "498272362"}, "geometry": {"type": "Polygon", "coordinates": [[[15.2012162, 59.2506308], [15.201269, 59.2506275], [15.20131, 59.2506262], [15.2013625, 59.2506093], [15.2013856, 59.2505858], [15.2014282, 59.2505624], [15.2014536, 59.2505419], [15.2014416, 59.2505179], [15.2013955, 59.2505049], [15.2013433, 59.2505226], [15.2013079, 59.2505515], [15.2012941, 59.2505908], [15.2012655, 59.2505982], [15.2011944, 59.2505958], [15.2011766, 59.2506073], [15.2011774, 59.2506218], [15.2012162, 59.2506308]]]}}, {"type": "Feature", "properties": {"kind": "water_hazard", "osm_id": "550843169"}, "geometry": {"type": "Polygon", "coordinates": [[[15.2163908, 59.2498979], [15.2163353, 59.2499058], [15.2162244, 59.2498192], [15.2160981, 59.2497404], [15.2159748, 59.2496758], [15.21579, 59.2496238], [15.2156606, 59.2495986], [15.2154541, 59.2494978], [15.2153165, 59.2494322], [15.2152476, 59.2494737], [15.2148828, 59.2495149], [15.2144556, 59.2495263], [15.214367, 59.2494614], [15.2143822, 59.2494012], [15.2146911, 59.2493862], [15.2151799, 59.2493891], [15.2153032, 59.2494064], [15.2154665, 59.2494773], [15.2156975, 59.2495813], [15.2159194, 59.2496333], [15.2160395, 59.2496774], [15.2161874, 59.2497703], [15.2163261, 59.2498491], [15.2163908, 59.2498979]]]}}, {"type": "Feature", "properties": {"kind": "bunker", "osm_id": "846998153"}, "geometry": {"type": "Polygon", "coordinates": [[[15.212776, 59.2512868], [15.212746, 59.2512622], [15.2127238, 59.2512556], [15.2126979, 59.251256], [15.2126701, 59.251276], [15.2126585, 59.2512943], [15.2126592, 59.2513109], [15.2126931, 59.2513262], [15.2127392, 59.2513281], [15.2127775, 59.251319], [15.2127832, 59.2513041], [15.212776, 59.2512868]]]}}, {"type": "Feature", "properties": {"kind": "bunker", "osm_id": "846998154"}, "geometry": {"type": "Polygon", "coordinates": [[[15.2018586, 59.2498362], [15.2018662, 59.2498032], [15.2019081, 59.2497536], [15.2019099, 59.2497223], [15.2018858, 59.2497087], [15.2018474, 59.2497038], [15.2018059, 59.2497208], [15.2017905, 59.2497405], [15.2018023, 59.2497637], [15.201794, 59.2497884], [15.2017838, 59.2498197], [15.2017865, 59.2498433], [15.2018139, 59.2498532], [15.2018424, 59.2498492], [15.2018586, 59.2498362]]]}}, {"type": "Feature", "properties": {"kind": "bunker", "osm_id": "846998155"}, "geometry": {"type": "Polygon", "coordinates": [[[15.199527, 59.2498378], [15.1994925, 59.2498215], [15.1994762, 59.2498092], [15.1994431, 59.249805], [15.199419, 59.2498077], [15.19941, 59.24982], [15.1994173, 59.2498379], [15.1994648, 59.2498592], [15.199535, 59.249872], [15.199589, 59.2498766], [15.1996338, 59.2498862], [15.1996794, 59.2499044], [15.1997366, 59.2499113], [15.1997826, 59.2499016], [15.199778, 59.249884], [15.19975, 59.2498684], [15.1996596, 59.2498525], [15.199607, 59.2498446], [15.1995498, 59.2498417], [15.199527, 59.2498378]]]}}, {"type": "Feature", "properties": {"kind": "bunker", "osm_id": "846998156"}, "geometry": {"type": "Polygon", "coordinates": [[[15.2047167, 59.2494778], [15.2047139, 59.2494565], [15.2047145, 59.2494379], [15.2047339, 59.2494205], [15.2047793, 59.2494148], [15.204806, 59.2494207], [15.2048282, 59.2494473], [15.2048362, 59.2494862], [15.2047988, 59.2495295], [15.2047457, 59.2495612], [15.2047023, 59.2495653], [15.2046607, 59.249559], [15.2046404, 59.2495461], [15.2046416, 59.2495258], [15.2046669, 59.2495108], [15.2046973, 59.2494994], [15.2047135, 59.2494894], [15.2047167, 59.2494778]]]}}, {"type": "Feature", "properties": {"kind": "bunker", "osm_id": "846998157"}, "geometry": {"type": "Polygon", "coordinates": [[[15.2034232, 59.2490352], [15.2034008, 59.2490362], [15.2033566, 59.2490253], [15.2033426, 59.249015], [15.2033432, 59.2490051], [15.2033581, 59.2489964], [15.2033941, 59.2489957], [15.2034244, 59.2490041], [15.2034624, 59.2490127], [15.2035102, 59.2490191], [15.203544, 59.249024], [15.2035732, 59.2490303], [15.2035763, 59.2490479], [15.2035617, 59.2490541], [15.2035062, 59.2490532], [15.2034892, 59.2490481], [15.2034597, 59.2490461], [15.2034232, 59.2490352]]]}}, {"type": "Feature", "properties": {"kind": "bunker", "osm_id": "846998158"}, "geometry": {"type": "Polygon", "coordinates": [[[15.2030607, 59.248526], [15.2030632, 59.248504], [15.2030546, 59.2484768], [15.2030337, 59.2484582], [15.2030083, 59.2484439], [15.2029654, 59.2484403], [15.2029161, 59.2484447], [15.2028616, 59.2484608], [15.2028039, 59.2484735], [15.2027475, 59.2484919], [15.2026814, 59.2485133], [15.2026542, 59.2485313], [15.2026239, 59.2485566], [15.2026267, 59.2485932], [15.2026412, 59.2486304], [15.2026615, 59.2486553], [15.2027038, 59.2486693], [15.2027453, 59.2486708], [15.2027641, 59.2486562], [15.2027613, 59.2486229], [15.2027643, 59.2485883], [15.2027713, 59.2485564], [15.2027874, 59.2485391], [15.2028302, 59.2485187], [15.2028716, 59.2485073], [15.2029236, 59.2485029], [15.2029723, 59.2485108], [15.2029971, 59.2485277], [15.2030264, 59.248536], [15.2030504, 59.2485333], [15.2030607, 59.248526]]]}}, {"type": "Feature", "properties": {"kind": "bunker", "osm_id": "846998159"}, "geometry": {"type": "Polygon", "coordinates": [[[15.2057347, 59.2485551], [15.2057462, 59.2485331], [15.2057741, 59.2485287], [15.2058124, 59.2485173], [15.20585, 59.248506], [15.2059071, 59.2485029], [15.2059312, 59.2485098], [15.2059364, 59.2485201], [15.2059268, 59.2485338], [15.2059066, 59.2485375], [15.2058586, 59.2485409], [15.2058197, 59.2485519], [15.2057854, 59.2485636], [15.2057496, 59.2485623], [15.2057347, 59.2485551]]]}}, {"type": "Feature", "properties": {"kind": "bunker", "osm_id": "846998160"}, "geometry": {"type": "Polygon", "coordinates": [[[15.2055928, 59.2485064], [15.205555, 59.2484945], [15.2055296, 59.2484825], [15.2054887, 59.2484716], [15.2054614, 59.2484687], [15.2054413, 59.2484743], [15.2054381, 59.248486], [15.2054447, 59.248499], [15.2055097, 59.2485145], [15.205552, 59.2485304], [15.2055864, 59.2485273], [15.2055974, 59.2485197], [15.2055928, 59.2485064]]]}}, {"type": "Feature", "properties": {"kind": "bunker", "osm_id": "846998161"}, "geometry": {"type": "Polygon", "coordinates": [[[15.2055552, 59.2482995], [15.2056052, 59.2482998], [15.2056272, 59.2482924], [15.2056602, 59.2482654], [15.2056835, 59.2482644], [15.2057024, 59.248272], [15.205711, 59.248286], [15.2056987, 59.248304], [15.2056651, 59.2483236], [15.2056294, 59.2483264], [15.2055633, 59.2483531], [15.2055497, 59.2483564], [15.2055016, 59.2483552], [15.2054892, 59.2483395], [15.2054949, 59.2483166], [15.2055162, 59.2483042], [15.2055552, 59.2482995]]]}}, {"type": "Feature", "properties": {"kind": "bunker", "osm_id": "846998162"}, "geometry": {"type": "Polygon", "coordinates": [[[15.2030472, 59.2481035], [15.2030471, 59.2480832], [15.2030223, 59.2480743], [15.202984, 59.2480724], [15.2029685, 59.248081], [15.2029536, 59.2480854], [15.2029556, 59.248101], [15.2029816, 59.2481083], [15.2030219, 59.2481116], [15.2030472, 59.2481035]]]}}, {"type": "Feature", "properties": {"kind": "bunker", "osm_id": "846998163"}, "geometry": {"type": "Polygon", "coordinates": [[[15.2031543, 59.2480914], [15.2031328, 59.2480831], [15.2031269, 59.2480735], [15.2031489, 59.2480561], [15.2031878, 59.2480501], [15.2032177, 59.248062], [15.2032185, 59.2480737], [15.2032023, 59.248086], [15.2031777, 59.248091], [15.2031543, 59.2480914]]]}}, {"type": "Feature", "properties": {"kind": "bunker", "osm_id": "846998164"}, "geometry": {"type": "Polygon", "coordinates": [[[15.2042711, 59.2479446], [15.2042457, 59.24794], [15.2042242, 59.2479224], [15.2042234, 59.2479014], [15.2042298, 59.2478885], [15.2042609, 59.2478734], [15.2043057, 59.2478744], [15.2043253, 59.2478883], [15.2043436, 59.2479129], [15.2043392, 59.2479285], [15.2043165, 59.2479382], [15.2042711, 59.2479446]]]}}, {"type": "Feature", "properties": {"kind": "bunker", "osm_id": "846998165"}, "geometry": {"type": "Polygon", "coordinates": [[[15.210881, 59.2493212], [15.2108712, 59.2493096], [15.2108399, 59.249302], [15.210825, 59.2492937], [15.2108243, 59.2492844], [15.2108112, 59.2492741], [15.2108196, 59.2492598], [15.2108442, 59.2492518], [15.2108767, 59.2492517], [15.2108962, 59.2492657], [15.2109139, 59.2492866], [15.2109282, 59.2492899], [15.2109542, 59.2492895], [15.2109803, 59.2493084], [15.2109921, 59.2493237], [15.2109896, 59.2493507], [15.2109826, 59.2493663], [15.2109644, 59.2493743], [15.2109456, 59.2493767], [15.2109255, 59.2493767], [15.2109085, 59.2493671], [15.2108812, 59.2493555], [15.2108772, 59.2493419], [15.210881, 59.2493212]]]}}, {"type": "Feature", "properties": {"kind": "bunker", "osm_id": "846998166"}, "geometry": {"type": "Polygon", "coordinates": [[[15.210841, 59.2490578], [15.2108702, 59.2490538], [15.2108943, 59.2490597], [15.2109131, 59.249059], [15.2109397, 59.2490467], [15.210948, 59.2490251], [15.210918, 59.2490088], [15.2107881, 59.24901], [15.2107609, 59.249021], [15.210752, 59.2490423], [15.210708, 59.249067], [15.2107068, 59.249091], [15.2107296, 59.2491009], [15.2107549, 59.2490999], [15.2107704, 59.2490882], [15.2108113, 59.2490752], [15.210841, 59.2490578]]]}}, {"type": "Feature", "properties": {"kind": "bunker", "osm_id": "846998167"}, "geometry": {"type": "Polygon", "coordinates": [[[15.2110293, 59.2490462], [15.2110638, 59.2490505], [15.2110963, 59.2490634], [15.2111171, 59.2490674], [15.2111483, 59.2490627], [15.2111689, 59.2490453], [15.2111688, 59.249024], [15.2111506, 59.2490134], [15.2111232, 59.2490061], [15.2110732, 59.2490059], [15.2110564, 59.2490122], [15.211033, 59.2490166], [15.2110214, 59.2490283], [15.2110293, 59.2490462]]]}}, {"type": "Feature", "properties": {"kind": "bunker", "osm_id": "846998168"}, "geometry": {"type": "Polygon", "coordinates": [[[15.2103983, 59.2510874], [15.2104606, 59.2510806], [15.2105359, 59.2510695], [15.2106052, 59.2510495], [15.2106467, 59.2510294], [15.2106861, 59.2510041], [15.2107055, 59.2509864], [15.210749, 59.250982], [15.2107725, 59.2509953], [15.2107765, 59.2510139], [15.2107416, 59.2510446], [15.2107151, 59.2510709], [15.2106828, 59.2511002], [15.2106408, 59.2511239], [15.210583, 59.2511373], [15.2105396, 59.2511411], [15.2104804, 59.2511388], [15.2104167, 59.2511299], [15.2103848, 59.251118], [15.2103796, 59.2511057], [15.2103983, 59.2510874]]]}}, {"type": "Feature", "properties": {"kind": "bunker", "osm_id": "846998169"}, "geometry": {"type": "Polygon", "coordinates": [[[15.2132152, 59.2511999], [15.2131884, 59.2511866], [15.2131696, 59.251178], [15.2131526, 59.2511741], [15.2131267, 59.2511738], [15.2130902, 59.2511645], [15.2130551, 59.2511523], [15.2130459, 59.2511416], [15.2130302, 59.2511214], [15.2130172, 59.2511117], [15.2130099, 59.2510925], [15.2130118, 59.2510775], [15.2130351, 59.2510681], [15.2130721, 59.2510648], [15.2131247, 59.251071], [15.2131729, 59.2510859], [15.2132126, 59.2511021], [15.2132289, 59.2511207], [15.2132479, 59.251136], [15.2132752, 59.2511463], [15.2132779, 59.2511659], [15.2132703, 59.2511855], [15.2132567, 59.2511998], [15.2132152, 59.2511999]]]}}, {"type": "Feature", "properties": {"kind": "bunker", "osm_id": "846998170"}, "geometry": {"type": "Polygon", "coordinates": [[[15.2126597, 59.2511809], [15.2126837, 59.2511775], [15.2127058, 59.2511688], [15.2127102, 59.2511528], [15.2127094, 59.2511349], [15.2126886, 59.2511286], [15.2126633, 59.251131], [15.2126355, 59.251145], [15.2126291, 59.2511649], [15.2126513, 59.2511799], [15.2126597, 59.2511809]]]}}, {"type": "Feature", "properties": {"kind": "bunker", "osm_id": "846998185"}, "geometry": {"type": "Polygon", "coordinates": [[[15.2129233, 59.2485575], [15.212917, 59.2485834], [15.2130367, 59.2486298], [15.2131277, 59.2486403], [15.2132524, 59.2486334], [15.2133201, 59.2486566], [15.2133499, 59.2486526], [15.2133484, 59.248612], [15.2133624, 59.2485787], [15.2133351, 59.2485708], [15.213265, 59.2485815], [15.2132039, 59.2485723], [15.2131248, 59.2485818], [15.2130792, 59.2485612], [15.2130324, 59.248556], [15.2129596, 59.2485494], [15.2129233, 59.2485575]]]}}, {"type": "Feature", "properties": {"kind": "water_hazard", "osm_id": "846998186"}, "geometry": {"type": "Polygon", "coordinates": [[[15.2090257, 59.2490295], [15.2091098, 59.2489808], [15.2091629, 59.2489494], [15.2091782, 59.2489168], [15.2091663, 59.2488736], [15.2091375, 59.2488357], [15.2090749, 59.2488025], [15.2089838, 59.2487688], [15.2089214, 59.2487649], [15.2088434, 59.2487424], [15.2087031, 59.2487406], [15.2085991, 59.2487361], [15.2085277, 59.2487449], [15.2084604, 59.2487736], [15.2083658, 59.248819], [15.2082933, 59.248845], [15.2082024, 59.2488545], [15.2080973, 59.248876], [15.2079752, 59.2488775], [15.2079688, 59.2488961], [15.208117, 59.2489079], [15.2083378, 59.2489122], [15.2084406, 59.2489366], [15.2085499, 59.2489757], [15.2087087, 59.2490194], [15.2088918, 59.2490257], [15.2089659, 59.2490356], [15.2090257, 59.2490295]]]}}, {"type": "Feature", "properties": {"kind": "water_hazard", "osm_id": "846998187"}, "geometry": {"type": "Polygon", "coordinates": [[[15.2110273, 59.2496683], [15.2110089, 59.2496311], [15.2108162, 59.2495569], [15.2107718, 59.2495157], [15.2107375, 59.2494412], [15.2106668, 59.2493482], [15.2105494, 59.2492579], [15.2105179, 59.2492154], [15.2104163, 59.2491676], [15.2102887, 59.2491133], [15.2101743, 59.2490975], [15.2099976, 59.2490938], [15.2098001, 59.2490861], [15.2096598, 59.2490704], [15.2095896, 59.2490625], [15.2094282, 59.2490069], [15.2093683, 59.248991], [15.2092957, 59.2490031], [15.2092543, 59.2490325], [15.2092856, 59.249063], [15.2093793, 59.2490802], [15.2096445, 59.2491183], [15.209746, 59.2491501], [15.2098294, 59.2491925], [15.2099675, 59.2492695], [15.2100718, 59.2493199], [15.210206, 59.2493862], [15.210353, 59.2494319], [15.2104403, 59.249469], [15.2104964, 59.2495128], [15.2105485, 59.2495407], [15.2106292, 59.2495725], [15.210745, 59.2495916], [15.2108048, 59.2496054], [15.2108869, 59.2496412], [15.2109559, 59.2496784], [15.2110027, 59.249679], [15.2110273, 59.2496683]]]}}, {"type": "Feature", "properties": {"kind": "green", "osm_id": "1085344536"}, "geometry": {"type": "Polygon", "coordinates": [[[15.2102446, 59.2504471], [15.2102847, 59.2504545], [15.2103179, 59.2504682], [15.2103406, 59.2504866], [15.2102602, 59.250513], [15.2103283, 59.2505492], [15.210299, 59.2505649], [15.2102613, 59.2505749], [15.2102193, 59.2505782], [15.2101775, 59.2505742], [15.2101405, 59.2505636], [15.2101122, 59.2505474], [15.2100957, 59.2505274], [15.2100928, 59.2505058], [15.2101038, 59.2504848], [15.2101276, 59.2504667], [15.2101615, 59.2504536], [15.210202, 59.2504468], [15.2102446, 59.2504471]]]}}, {"type": "Feature", "properties": {"kind": "bunker", "osm_id": "1085344537"}, "geometry": {"type": "Polygon", "coordinates": [[[15.2096377, 59.2502108], [15.2096779, 59.2502176], [15.209698, 59.2502149], [15.2097249, 59.2502019], [15.2097477, 59.2502012], [15.2097611, 59.2501957], [15.2097812, 59.2501847], [15.2097812, 59.2501737], [15.2097664, 59.2501614], [15.209753, 59.250158], [15.2097249, 59.2501593], [15.2097115, 59.2501635], [15.2097021, 59.2501731], [15.2096887, 59.2501792], [15.2096618, 59.2501799], [15.2096377, 59.2501827], [15.2096296, 59.250195], [15.2096296, 59.2502019], [15.2096377, 59.2502108]]]}}, {"type": "Feature", "properties": {"kind": "bunker", "osm_id": "1085344538"}, "geometry": {"type": "Polygon", "coordinates": [[[15.2097906, 59.2502944], [15.2097906, 59.2502787], [15.2098134, 59.2502636], [15.209859, 59.2502499], [15.2098804, 59.250243], [15.2098952, 59.2502355], [15.2099086, 59.2502396], [15.2099086, 59.2502553], [15.2098992, 59.2502704], [15.2098845, 59.2502828], [15.2098751, 59.2502979], [15.2098523, 59.2503116], [15.2098268, 59.2503116], [15.2098053, 59.2503047], [15.2097906, 59.2502944]]]}}, {"type": "Feature", "properties": {"kind": "green", "osm_id": "1085344539"}, "geometry": {"type": "Polygon", "coordinates": [[[15.2097906, 59.2502944], [15.2097343, 59.2503013], [15.2096819, 59.2502924], [15.2096444, 59.2502745], [15.2096243, 59.2502533], [15.2096203, 59.2502293], [15.2096377, 59.2502108], [15.2096779, 59.2502176], [15.209698, 59.2502149], [15.2097249, 59.2502019], [15.2097477, 59.2502012], [15.2097611, 59.2501957], [15.2097812, 59.2501847], [15.2097812, 59.2501737], [15.2098174, 59.2501785], [15.209855, 59.250195], [15.2098737, 59.2502101], [15.2098764, 59.2502272], [15.2098804, 59.250243], [15.209859, 59.2502499], [15.2098134, 59.2502636], [15.2097906, 59.2502787], [15.2097906, 59.2502944]]]}}, {"type": "Feature", "properties": {"kind": "green", "osm_id": "1085344540"}, "geometry": {"type": "Polygon", "coordinates": [[[15.2078526, 59.2495115], [15.2080237, 59.2494976], [15.2081498, 59.2494493], [15.2082174, 59.2494009], [15.2082039, 59.2493433], [15.2081138, 59.2492881], [15.2080327, 59.2492743], [15.2079066, 59.2493019], [15.2077985, 59.249341], [15.2077618, 59.2493705], [15.2077355, 59.2493917], [15.207722, 59.2494378], [15.207767, 59.2494861], [15.2078077, 59.2494982], [15.2078526, 59.2495115]]]}}, {"type": "Feature", "properties": {"kind": "fairway", "osm_id": "1085344541"}, "geometry": {"type": "Polygon", "coordinates": [[[15.2078077, 59.2494982], [15.2074923, 59.2495644], [15.2072581, 59.2496289], [15.2070239, 59.2496542], [15.2067897, 59.2496796], [15.2065105, 59.2497371], [15.2062808, 59.2497694], [15.2061322, 59.2497993], [15.2060196, 59.2498016], [15.2058844, 59.2497947], [15.2058349, 59.2497325], [15.2057403, 59.249668], [15.2057809, 59.2496197], [15.2059925, 59.2495967], [15.2061772, 59.249569], [15.2063348, 59.2495391], [15.206497, 59.2495115], [15.2066816, 59.2494815], [15.2068167, 59.2494562], [15.2069744, 59.2494239], [15.207096, 59.2493894], [15.2072131, 59.2493664], [15.207276, 59.2493652], [15.2073392, 59.2493641], [15.2075283, 59.2493618], [15.2076589, 59.2493618], [15.2077618, 59.2493705], [15.2077355, 59.2493917], [15.207722, 59.2494378], [15.207767, 59.2494861], [15.2078077, 59.2494982]]]}}, {"type": "Feature", "properties": {"kind": "green", "osm_id": "1085344542"}, "geometry": {"type": "Polygon", "coordinates": [[[15.2045874, 59.2495322], [15.2045063, 59.2495598], [15.2043667, 59.2495138], [15.2043442, 59.2494447], [15.2043937, 59.2494055], [15.2044928, 59.2493595], [15.2045829, 59.2493364], [15.204691, 59.249341], [15.2047225, 59.2493825], [15.2046774, 59.2494424], [15.2046819, 59.2494838], [15.2045874, 59.2495322]]]}}, {"type": "Feature", "properties": {"kind": "fairway", "osm_id": "1085344543"}, "geometry": {"type": "Polygon", "coordinates": [[[15.2048531, 59.2493134], [15.2048441, 59.2493687], [15.2048801, 59.2493871], [15.2050603, 59.2494078], [15.205317, 59.2494424], [15.2055512, 59.2494608], [15.2058619, 59.2494585], [15.2061006, 59.2494216], [15.2063213, 59.2493917], [15.2065465, 59.2493503], [15.2067807, 59.2493318], [15.2069158, 59.2492996], [15.2070014, 59.2492397], [15.2070149, 59.2491822], [15.2069518, 59.2491315], [15.2067762, 59.2491154], [15.2065645, 59.2491315], [15.2063573, 59.2491499], [15.2061322, 59.2491775], [15.205925, 59.2492029], [15.2057268, 59.2492029], [15.2054746, 59.2491983], [15.2052449, 59.2492259], [15.2050603, 59.2492397], [15.2049116, 59.2492674], [15.2048531, 59.2493134]]]}}, {"type": "Feature", "properties": {"kind": "green", "osm_id": "1085344544"}, "geometry": {"type": "Polygon", "coordinates": [[[15.2054341, 59.2507572], [15.2054116, 59.2508033], [15.2054521, 59.2508562], [15.2055196, 59.2508977], [15.2056052, 59.2509322], [15.2056908, 59.2509437], [15.2057628, 59.2509322], [15.2058259, 59.2509138], [15.2058619, 59.250877], [15.2058709, 59.2508332], [15.2058439, 59.2507964], [15.2057899, 59.2507641], [15.2057268, 59.2507457], [15.2056367, 59.2507365], [15.2055602, 59.2507365], [15.2055016, 59.2507365], [15.2054341, 59.2507572]]]}}, {"type": "Feature", "properties": {"kind": "green", "osm_id": "1085344545"}, "geometry": {"type": "Polygon", "coordinates": [[[15.2039568, 59.2498592], [15.204092, 59.2498361], [15.204173, 59.249797], [15.2042406, 59.2497578], [15.2042496, 59.2497095], [15.2042226, 59.2496588], [15.204101, 59.249622], [15.2040154, 59.2496197], [15.2038983, 59.2496473], [15.2038397, 59.2496819], [15.2037992, 59.2497187], [15.2037767, 59.2497648], [15.2037677, 59.2498108], [15.2037902, 59.2498592], [15.2038803, 59.2498753], [15.2039568, 59.2498592]]]}}, {"type": "Feature", "properties": {"kind": "green", "osm_id": "1085344546"}, "geometry": {"type": "Polygon", "coordinates": [[[15.2009774, 59.2505483], [15.201072, 59.250569], [15.2011846, 59.2505552], [15.2012251, 59.2505345], [15.2012927, 59.2504884], [15.2013152, 59.2504516], [15.2012611, 59.2504055], [15.2011395, 59.2503917], [15.2010224, 59.2504101], [15.2009459, 59.2504493], [15.2009053, 59.250493], [15.2009234, 59.2505276], [15.2009774, 59.2505483]]]}}, {"type": "Feature", "properties": {"kind": "bunker", "osm_id": "1104792703"}, "geometry": {"type": "Polygon", "coordinates": [[[15.2089076, 59.2504117], [15.2089475, 59.2504467], [15.2089758, 59.2504489], [15.2090031, 59.2504372], [15.2090021, 59.2504293], [15.2089849, 59.2504195], [15.2089784, 59.2504108], [15.208955, 59.2504055], [15.2089495, 59.2503922], [15.208928, 59.2503884], [15.2089131, 59.2503954], [15.2089076, 59.2504117]]]}}, {"type": "Feature", "properties": {"kind": "green", "osm_id": "1104792704"}, "geometry": {"type": "Polygon", "coordinates": [[[15.2090031, 59.2504372], [15.209029, 59.2504867], [15.2090185, 59.2505088], [15.2088718, 59.2505358], [15.2087876, 59.250538], [15.2087365, 59.2505119], [15.2087155, 59.2504608], [15.2087282, 59.2504092], [15.2087836, 59.2503809], [15.2088679, 59.2503773], [15.208928, 59.2503884], [15.2089131, 59.2503954], [15.2089076, 59.2504117], [15.2089475, 59.2504467], [15.2089758, 59.2504489], [15.2090031, 59.2504372]]]}}, {"type": "Feature", "properties": {"kind": "green", "osm_id": "1104792705"}, "geometry": {"type": "Polygon", "coordinates": [[[15.2079202, 59.2502163], [15.2078381, 59.2502172], [15.2077701, 59.2502039], [15.2077458, 59.2501729], [15.2077943, 59.2501381], [15.2078941, 59.2501166], [15.2079809, 59.2501171], [15.2080387, 59.2501352], [15.2080573, 59.2501571], [15.2080331, 59.2501915], [15.2079771, 59.2502105], [15.2079202, 59.2502163]]]}}, {"type": "Feature", "properties": {"kind": "bunker", "osm_id": "1104792706"}, "geometry": {"type": "Polygon", "coordinates": [[[15.2080695, 59.2501366], [15.2080443, 59.2501223], [15.2080331, 59.2501066], [15.2080349, 59.2500885], [15.2080629, 59.2500846], [15.2080816, 59.2500908], [15.2081124, 59.250088], [15.208145, 59.2501013], [15.2081347, 59.2501176], [15.2081096, 59.2501347], [15.2080695, 59.2501366]]]}}, {"type": "Feature", "properties": {"kind": "green", "osm_id": "1104792707"}, "geometry": {"type": "Polygon", "coordinates": [[[15.2088548, 59.2500751], [15.208796, 59.2500608], [15.2087596, 59.2500269], [15.2087447, 59.2499926], [15.2087447, 59.249963], [15.2087652, 59.2499368], [15.208824, 59.249934], [15.2088697, 59.2499559], [15.2089247, 59.2499726], [15.2089863, 59.2499874], [15.2090059, 59.2500093], [15.208976, 59.2500517], [15.2089257, 59.2500703], [15.2088548, 59.2500751]]]}}, {"type": "Feature", "properties": {"kind": "green", "osm_id": "1104792708"}, "geometry": {"type": "Polygon", "coordinates": [[[15.2095729, 59.249779], [15.2095132, 59.2497642], [15.2094666, 59.2497356], [15.2094414, 59.2496931], [15.2094517, 59.2496559], [15.2095114, 59.2496392], [15.209558, 59.2496426], [15.2095785, 59.2496569], [15.2096214, 59.2496836], [15.2096755, 59.2497003], [15.20971, 59.2497384], [15.2096942, 59.2497647], [15.2096233, 59.2497804], [15.2095729, 59.249779]]]}}, {"type": "Feature", "properties": {"kind": "bunker", "osm_id": "1104792709"}, "geometry": {"type": "Polygon", "coordinates": [[[15.20971, 59.2497384], [15.2097306, 59.2497394], [15.2097502, 59.2497351], [15.2097576, 59.2497227], [15.2097464, 59.2497132], [15.209738, 59.2497055], [15.2097184, 59.2497017], [15.2097072, 59.2496941], [15.2097007, 59.2496841], [15.2096793, 59.2496798], [15.2096634, 59.2496879], [15.2096755, 59.2497003], [15.20971, 59.2497384]]]}}, {"type": "Feature", "properties": {"kind": "green", "osm_id": "1104792710"}, "geometry": {"type": "Polygon", "coordinates": [[[15.2081637, 59.2508624], [15.2081221, 59.2508656], [15.2080951, 59.2508587], [15.2080868, 59.2508343], [15.2080795, 59.2508199], [15.2080899, 59.2507827], [15.2081034, 59.2507466], [15.2081377, 59.2507275], [15.2081938, 59.2507238], [15.2082281, 59.2507386], [15.2082717, 59.2507498], [15.2082998, 59.2507535], [15.2083102, 59.2507663], [15.2082811, 59.2507758], [15.2082728, 59.2507875], [15.208252, 59.2508189], [15.208252, 59.2508359], [15.2082312, 59.250847], [15.2081637, 59.2508624]]]}}, {"type": "Feature", "properties": {"kind": "bunker", "osm_id": "1104792711"}, "geometry": {"type": "Polygon", "coordinates": [[[15.2083006, 59.2508195], [15.2082877, 59.2508174], [15.208287, 59.2508074], [15.2082911, 59.2507973], [15.2082843, 59.250791], [15.2082931, 59.2507789], [15.2083087, 59.2507768], [15.2083203, 59.2507698], [15.2083441, 59.2507712], [15.2083563, 59.2507764], [15.2083788, 59.2507813], [15.2083767, 59.2507928], [15.2083584, 59.2507973], [15.2083346, 59.2508028], [15.2083203, 59.250814], [15.2083006, 59.2508195]]]}}, {"type": "Feature", "properties": {"kind": "bunker", "osm_id": "1104792712"}, "geometry": {"type": "Polygon", "coordinates": [[[15.2082856, 59.2507399], [15.2082645, 59.2507344], [15.2082353, 59.2507298], [15.2082251, 59.2507194], [15.2082346, 59.2507059], [15.2082598, 59.2507013], [15.2082747, 59.2507072], [15.2082897, 59.2507086], [15.2083114, 59.2507135], [15.208323, 59.2507191], [15.208323, 59.2507267], [15.2083203, 59.2507382], [15.2083142, 59.2507424], [15.2082992, 59.2507469], [15.2082856, 59.2507399]]]}}, {"type": "Feature", "properties": {"kind": "green", "osm_id": "1104792713"}, "geometry": {"type": "Polygon", "coordinates": [[[15.207527, 59.2506709], [15.2074863, 59.2506586], [15.2074577, 59.2506435], [15.207429, 59.2506392], [15.207404, 59.2506255], [15.2073892, 59.2505995], [15.2074049, 59.2505853], [15.2074059, 59.2505612], [15.2074466, 59.2505385], [15.2074762, 59.2505266], [15.2075446, 59.2505129], [15.2075909, 59.2505196], [15.2076084, 59.2505437], [15.2076131, 59.2505673], [15.2075918, 59.2505787], [15.2075835, 59.2505966], [15.2076047, 59.2506127], [15.2076288, 59.2506203], [15.2076279, 59.2506331], [15.2076075, 59.2506463], [15.2076001, 59.2506595], [15.2075668, 59.2506704], [15.207527, 59.2506709]]]}}, {"type": "Feature", "properties": {"kind": "fairway", "osm_id": "1104792715"}, "geometry": {"type": "Polygon", "coordinates": [[[15.2023512, 59.2501605], [15.202612, 59.2501813], [15.2027577, 59.2502004], [15.2029678, 59.2501701], [15.2030152, 59.2501458], [15.2030237, 59.2500427], [15.2028289, 59.2499994], [15.2027188, 59.2499674], [15.2025002, 59.2499804], [15.2022478, 59.2500263], [15.2021834, 59.2500756], [15.2021936, 59.2501267], [15.2023512, 59.2501605]]]}}, {"type": "Feature", "properties": {"kind": "green", "osm_id": "1104792716"}, "geometry": {"type": "Polygon", "coordinates": [[[15.2030152, 59.2501458], [15.2031219, 59.2501804], [15.2032456, 59.2502367], [15.2034048, 59.2502419], [15.2035048, 59.2501848], [15.2035082, 59.2501112], [15.2034184, 59.2500202], [15.2032575, 59.2499951], [15.2031372, 59.2500141], [15.2030237, 59.2500427], [15.2030152, 59.2501458]]]}}, {"type": "Feature", "properties": {"kind": "fairway", "osm_id": "1104792717"}, "geometry": {"type": "Polygon", "coordinates": [[[15.204092, 59.2498361], [15.2041384, 59.24986], [15.2041485, 59.2499353], [15.2041705, 59.250009], [15.2042197, 59.2500739], [15.2042891, 59.2501094], [15.2043654, 59.2501172], [15.2045619, 59.2501328], [15.2046499, 59.2501579], [15.2047228, 59.250274], [15.2048583, 59.2503372], [15.205087, 59.2503857], [15.2052056, 59.2503857], [15.2053276, 59.2503589], [15.2054936, 59.2503294], [15.2055732, 59.2503519], [15.2057053, 59.2503961], [15.2058036, 59.2504472], [15.2058917, 59.2504628], [15.2059865, 59.2504567], [15.2060526, 59.2504186], [15.2060543, 59.2503701], [15.2060153, 59.2503112], [15.2059577, 59.2502853], [15.2058663, 59.2502445], [15.2057578, 59.2502255], [15.2055325, 59.2501926], [15.2052971, 59.2501666], [15.2050752, 59.2501337], [15.2048888, 59.2500756], [15.2047279, 59.2500072], [15.2045924, 59.2499275], [15.2045212, 59.2498678], [15.204467, 59.2498435], [15.2043332, 59.2498054], [15.2042688, 59.2497604], [15.2042496, 59.2497095], [15.2042406, 59.2497578], [15.204173, 59.249797], [15.204092, 59.2498361]]]}}, {"type": "Feature", "properties": {"kind": "fairway", "osm_id": "1104792718"}, "geometry": {"type": "Polygon", "coordinates": [[[15.2020739, 59.2497737], [15.2025696, 59.2495573], [15.2027366, 59.2494804], [15.202796, 59.2494197], [15.2027533, 59.2493665], [15.2026197, 59.2493494], [15.2024433, 59.249376], [15.2023171, 59.2494216], [15.2021277, 59.2494548], [15.2019143, 59.2494776], [15.201788, 59.2495117], [15.201801, 59.2495611], [15.2018938, 59.2496645], [15.2019607, 59.2497481], [15.2020015, 59.2497708], [15.2020739, 59.2497737]]]}}, {"type": "Feature", "properties": {"kind": "green", "osm_id": "1104792719"}, "geometry": {"type": "Polygon", "coordinates": [[[15.2001288, 59.251125], [15.2003787, 59.251104], [15.200567, 59.251062], [15.200632, 59.2509815], [15.2005893, 59.2509307], [15.2004592, 59.2508843], [15.2002606, 59.2508738], [15.2000843, 59.2509027], [15.1999987, 59.2509753], [15.1999491, 59.2510471], [15.2000021, 59.2510891], [15.2001288, 59.251125]]]}}, {"type": "Feature", "properties": {"kind": "fairway", "osm_id": "1104792720"}, "geometry": {"type": "Polygon", "coordinates": [[[15.1999491, 59.2510471], [15.1998892, 59.2510174], [15.1998327, 59.2510077], [15.199694, 59.2509998], [15.1995896, 59.2509648], [15.1995331, 59.2508817], [15.1994424, 59.2507951], [15.1993534, 59.2507294], [15.1992729, 59.2506629], [15.1991582, 59.2506191], [15.199148, 59.250564], [15.1992096, 59.250536], [15.1993106, 59.2505544], [15.1994561, 59.250585], [15.1995554, 59.2505973], [15.1996444, 59.2506629], [15.1997248, 59.2507539], [15.1999371, 59.2508344], [15.2000843, 59.2509027], [15.1999987, 59.2509753], [15.1999491, 59.2510471]]]}}, {"type": "Feature", "properties": {"kind": "fairway", "osm_id": "1104792721"}, "geometry": {"type": "Polygon", "coordinates": [[[15.2019359, 59.2511545], [15.2020186, 59.2511447], [15.2024994, 59.251133], [15.2027158, 59.2511436], [15.2028699, 59.2511309], [15.2030322, 59.2511032], [15.2033277, 59.2510149], [15.203463, 59.2509659], [15.2036295, 59.2509489], [15.2037502, 59.2509691], [15.2038293, 59.2509649], [15.2039146, 59.2509319], [15.2039667, 59.2508585], [15.2040374, 59.2508063], [15.2041602, 59.2507723], [15.2043267, 59.250751], [15.2045307, 59.2507606], [15.2047492, 59.2508021], [15.2048595, 59.2508042], [15.2049719, 59.2507627], [15.2051072, 59.250752], [15.2052779, 59.2507723], [15.2054444, 59.2508925], [15.2055443, 59.2509319], [15.2056052, 59.2509322], [15.2056908, 59.2509437], [15.2057628, 59.2509322], [15.2058259, 59.2509138], [15.2058619, 59.250877], [15.2058709, 59.2508332], [15.2058439, 59.2507964], [15.2057899, 59.2507641], [15.2057268, 59.2507457], [15.2055901, 59.2506988], [15.205434, 59.2506893], [15.2053299, 59.2506956], [15.2052467, 59.2506818], [15.2051572, 59.2506605], [15.2050885, 59.2506244], [15.2049365, 59.2506009], [15.204768, 59.2505871], [15.2046764, 59.2505584], [15.204512, 59.2505318], [15.2042643, 59.2505509], [15.2037731, 59.2506765], [15.2031342, 59.2507786], [15.202822, 59.2508382], [15.2022788, 59.2508797], [15.2021081, 59.250918], [15.2018688, 59.2509968], [15.2016232, 59.2509968], [15.2015274, 59.2510053], [15.2014608, 59.2510372], [15.2014629, 59.2510862], [15.2015212, 59.2511255], [15.2016856, 59.2511564], [15.2019359, 59.2511545]]]}}, {"type": "Feature", "properties": {"kind": "green", "osm_id": "1253267808"}, "geometry": {"type": "Polygon", "coordinates": [[[15.212827, 59.2485167], [15.2128942, 59.2485429], [15.2129615, 59.248542], [15.2130146, 59.2485257], [15.213073, 59.2485122], [15.2131119, 59.2485131], [15.2131508, 59.2485212], [15.2131933, 59.2485357], [15.2132269, 59.2485493], [15.2132712, 59.248561], [15.2133384, 59.2485601], [15.2133738, 59.2485465], [15.2134057, 59.2485203], [15.213411, 59.2484959], [15.2134198, 59.2484669], [15.2134039, 59.2484416], [15.2133632, 59.2484298], [15.2132977, 59.2484171], [15.2132075, 59.248409], [15.2131208, 59.2483972], [15.2130535, 59.2483918], [15.212988, 59.2483882], [15.2129173, 59.2483873], [15.2128482, 59.2483936], [15.2128128, 59.248419], [15.2127881, 59.2484479], [15.2127898, 59.2484796], [15.212827, 59.2485167]]]}}, {"type": "Feature", "properties": {"kind": "green", "osm_id": "1253267809"}, "geometry": {"type": "Polygon", "coordinates": [[[15.2108645, 59.2491537], [15.2108185, 59.2491862], [15.210838, 59.2492279], [15.21093, 59.2492487], [15.210999, 59.249274], [15.2110468, 59.2492939], [15.2110963, 59.2493392], [15.2111689, 59.2493627], [15.2112485, 59.2493663], [15.2113016, 59.2493627], [15.2113441, 59.2493455], [15.2113848, 59.2493057], [15.2114149, 59.2492695], [15.2114255, 59.2492414], [15.2114202, 59.2492098], [15.2113865, 59.2491754], [15.2113228, 59.2491464], [15.2112503, 59.2491292], [15.211137, 59.2491175], [15.2110362, 59.2491139], [15.2109495, 59.2491256], [15.2108999, 59.2491347], [15.2108645, 59.2491537]]]}}, {"type": "Feature", "properties": {"kind": "green", "osm_id": "1253267810"}, "geometry": {"type": "Polygon", "coordinates": [[[15.2136492, 59.2495782], [15.213794, 59.2495546], [15.2138556, 59.2495089], [15.2139234, 59.2494569], [15.2139511, 59.2494049], [15.2139419, 59.2493545], [15.2138834, 59.2493104], [15.2138464, 59.249271], [15.2137077, 59.2492395], [15.2135599, 59.2492505], [15.2134613, 59.2492947], [15.2134058, 59.2493813], [15.2134058, 59.2494648], [15.2134181, 59.2495278], [15.2134705, 59.2495656], [15.2135537, 59.2495814], [15.2136492, 59.2495782]]]}}, {"type": "Feature", "properties": {"kind": "green", "osm_id": "1253267811"}, "geometry": {"type": "Polygon", "coordinates": [[[15.2123213, 59.2498303], [15.2124014, 59.2498129], [15.2124322, 59.2497909], [15.2124538, 59.2497594], [15.2124476, 59.2497263], [15.2124014, 59.2496948], [15.2123336, 59.2496743], [15.2122504, 59.249657], [15.2121611, 59.2496523], [15.2120193, 59.2496586], [15.2119485, 59.2496806], [15.2118591, 59.2497042], [15.211816, 59.2497531], [15.2118221, 59.2497893], [15.211856, 59.2498114], [15.211893, 59.2498192], [15.21193, 59.2498177], [15.2119762, 59.2498098], [15.2120625, 59.2498035], [15.2121025, 59.2498035], [15.2121765, 59.2498098], [15.2122412, 59.249824], [15.2123213, 59.2498303]]]}}, {"type": "Feature", "properties": {"kind": "green", "osm_id": "1253267812"}, "geometry": {"type": "Polygon", "coordinates": [[[15.2141699, 59.2502761], [15.2142346, 59.2502966], [15.2143209, 59.250295], [15.2143702, 59.2502792], [15.2144472, 59.2502525], [15.2145027, 59.2502462], [15.2145581, 59.2502383], [15.214592, 59.2502178], [15.2146012, 59.2501926], [15.2145982, 59.2501705], [15.2145704, 59.2501469], [15.214515, 59.2501249], [15.2144318, 59.2501028], [15.2143702, 59.2500823], [15.2143394, 59.2500713], [15.2143055, 59.2500603], [15.2142438, 59.2500634], [15.214173, 59.2500776], [15.2141206, 59.2501138], [15.2140929, 59.2501642], [15.2141114, 59.2502099], [15.2141237, 59.2502477], [15.2141699, 59.2502761]]]}}, {"type": "Feature", "properties": {"kind": "green", "osm_id": "1253267813"}, "geometry": {"type": "Polygon", "coordinates": [[[15.2128358, 59.2511677], [15.2128142, 59.2512071], [15.2128142, 59.2512622], [15.2128605, 59.2513126], [15.2129252, 59.2513551], [15.2130392, 59.2513867], [15.2131686, 59.2514008], [15.213261, 59.251393], [15.2133134, 59.2513614], [15.2133411, 59.2513095], [15.2133103, 59.2512496], [15.2131963, 59.2512181], [15.2130607, 59.2511929], [15.2129899, 59.2511661], [15.2129098, 59.2511504], [15.2128358, 59.2511677]]]}}, {"type": "Feature", "properties": {"kind": "green", "osm_id": "1253267814"}, "geometry": {"type": "Polygon", "coordinates": [[[15.1994561, 59.2500516], [15.1995481, 59.2500562], [15.1996225, 59.2500471], [15.1996614, 59.250029], [15.1996897, 59.2499982], [15.199695, 59.2499648], [15.1996632, 59.2499349], [15.1996048, 59.2499168], [15.1995251, 59.2499023], [15.1994561, 59.2498933], [15.1993942, 59.2498933], [15.1993322, 59.2499069], [15.1992915, 59.249934], [15.1992827, 59.2499738], [15.1993022, 59.2500118], [15.1993446, 59.2500353], [15.1993906, 59.2500489], [15.1994561, 59.2500516]]]}}, {"type": "Feature", "properties": {"kind": "green", "osm_id": "1253267815"}, "geometry": {"type": "Polygon", "coordinates": [[[15.2044573, 59.2479535], [15.2045324, 59.2479892], [15.2046316, 59.247996], [15.2046853, 59.2479796], [15.2047255, 59.2479412], [15.2047335, 59.2478959], [15.2047201, 59.2478315], [15.2046692, 59.2477903], [15.2046128, 59.2477505], [15.2045672, 59.2477382], [15.2044948, 59.2477382], [15.2044224, 59.2477601], [15.2043849, 59.2477999], [15.2043714, 59.2478383], [15.2043768, 59.2478822], [15.204409, 59.2479233], [15.2044573, 59.2479535]]]}}, {"type": "Feature", "properties": {"kind": "green", "osm_id": "1253267816"}, "geometry": {"type": "Polygon", "coordinates": [[[15.2055006, 59.2478356], [15.2055918, 59.2478424], [15.2056669, 59.2478342], [15.2057179, 59.2478068], [15.205742, 59.2477684], [15.2057125, 59.2477245], [15.2056321, 59.2476943], [15.2055328, 59.2476682], [15.2054604, 59.2476518], [15.2053424, 59.2476408], [15.2052432, 59.2476463], [15.2051734, 59.2476641], [15.2051278, 59.2477012], [15.2051144, 59.2477492], [15.2051386, 59.2477807], [15.2052378, 59.2478123], [15.2053478, 59.247826], [15.2054282, 59.2478246], [15.2055006, 59.2478356]]]}}, {"type": "Feature", "properties": {"kind": "green", "osm_id": "1253267817"}, "geometry": {"type": "Polygon", "coordinates": [[[15.2057018, 59.2485035], [15.2057876, 59.248509], [15.2058681, 59.2484884], [15.2059593, 59.2484527], [15.206021, 59.248402], [15.2060317, 59.2483554], [15.2060156, 59.248317], [15.2059781, 59.2482923], [15.2058869, 59.2482758], [15.2058171, 59.2482923], [15.2057528, 59.2483279], [15.2056965, 59.2483718], [15.2056401, 59.2483938], [15.2055865, 59.2484102], [15.2055543, 59.2484212], [15.2055462, 59.2484459], [15.2055677, 59.2484774], [15.2056374, 59.2484994], [15.2057018, 59.2485035]]]}}, {"type": "Feature", "properties": {"kind": "green", "osm_id": "1253267818"}, "geometry": {"type": "Polygon", "coordinates": [[[15.2023531, 59.2446844], [15.2024332, 59.2447017], [15.2025349, 59.2446938], [15.2025811, 59.2446608], [15.2026119, 59.2446072], [15.2025996, 59.2445473], [15.2025749, 59.2444827], [15.2025164, 59.2444386], [15.2024424, 59.2443992], [15.2023716, 59.2443976], [15.2022945, 59.2443976], [15.2022175, 59.2444339], [15.2021867, 59.2444748], [15.2022175, 59.2445331], [15.202273, 59.2445788], [15.202313, 59.2446261], [15.2023254, 59.2446592], [15.2023531, 59.2446844]]]}}, {"type": "Feature", "properties": {"kind": "green", "osm_id": "1253267819"}, "geometry": {"type": "Polygon", "coordinates": [[[15.2014195, 59.2454186], [15.2015089, 59.2454076], [15.2015582, 59.2453682], [15.2015705, 59.245302], [15.2015705, 59.2452532], [15.2015674, 59.2452122], [15.2015459, 59.2451697], [15.2014719, 59.2451382], [15.2014134, 59.2451082], [15.2013333, 59.2451066], [15.2012747, 59.2451397], [15.2012501, 59.2452106], [15.2012439, 59.2452673], [15.2012686, 59.2453241], [15.2013055, 59.2453698], [15.2013425, 59.2453997], [15.2014195, 59.2454186]]]}}, {"type": "Feature", "properties": {"kind": "green", "osm_id": "1253267820"}, "geometry": {"type": "Polygon", "coordinates": [[[15.1998342, 59.2483699], [15.1999067, 59.2483377], [15.1999603, 59.2482773], [15.2000233, 59.24823], [15.2001011, 59.2481882], [15.2001722, 59.2481553], [15.2002245, 59.2481217], [15.2002258, 59.2480997], [15.2002044, 59.2480703], [15.2001682, 59.2480531], [15.2000917, 59.2480552], [15.2000086, 59.2480703], [15.1998946, 59.2481018], [15.1997511, 59.2481525], [15.1996451, 59.248206], [15.1996022, 59.2482403], [15.1995808, 59.2482911], [15.1995915, 59.2483356], [15.1996264, 59.2483679], [15.1996827, 59.2483809], [15.1997296, 59.2483877], [15.19979, 59.2483843], [15.1998342, 59.2483699]]]}}, {"type": "Feature", "properties": {"kind": "water_hazard", "osm_id": "550843168"}, "geometry": {"type": "Polygon", "coordinates": [[[15.2160827, 59.2503894], [15.2160612, 59.2503819], [15.2160334, 59.2503721], [15.2161566, 59.2503248], [15.2164863, 59.2502272], [15.2166126, 59.2502083], [15.216702, 59.2501925], [15.2166434, 59.2501263], [15.2165387, 59.2500318], [15.2164586, 59.2499704], [15.2163694, 59.2499284], [15.2164247, 59.24992], [15.2164801, 59.2499531], [15.2165695, 59.2500239], [15.2166835, 59.2501169], [15.2167513, 59.2501862], [15.21693, 59.2502098], [15.2170963, 59.2502461], [15.217349, 59.2502713], [15.2175123, 59.2502398], [15.2176756, 59.2501941], [15.2177711, 59.2501626], [15.2178173, 59.2501862], [15.2176571, 59.2502303], [15.2174969, 59.2502728], [15.217349, 59.2502981], [15.2171672, 59.2502854], [15.2169823, 59.2502476], [15.2167451, 59.2502098], [15.216514, 59.2502508], [15.2163014, 59.2503154], [15.2160827, 59.2503894]]]}}, {"type": "Feature", "properties": {"kind": "bunker", "osm_id": "846998151"}, "geometry": {"type": "Polygon", "coordinates": [[[15.2196337, 59.2490217], [15.2195921, 59.2490184], [15.2195745, 59.2490071], [15.2195725, 59.2489958], [15.2195938, 59.2489768], [15.2195936, 59.2489516], [15.2195877, 59.2489373], [15.2196168, 59.2489276], [15.2196578, 59.2489318], [15.2196813, 59.2489581], [15.2196763, 59.2489887], [15.2196596, 59.2490116], [15.2196337, 59.2490217]]]}}, {"type": "Feature", "properties": {"kind": "bunker", "osm_id": "846998152"}, "geometry": {"type": "Polygon", "coordinates": [[[15.2194283, 59.2491065], [15.2194133, 59.2490909], [15.2194172, 59.2490826], [15.2194547, 59.2490632], [15.219515, 59.2490488], [15.2195566, 59.2490524], [15.2196152, 59.2490696], [15.2196321, 59.2490806], [15.2196381, 59.2490978], [15.2196219, 59.2491145], [15.2195849, 59.2491162], [15.2195608, 59.2491073], [15.2195205, 59.2491014], [15.2194959, 59.2491084], [15.2194283, 59.2491065]]]}}, {"type": "Feature", "properties": {"kind": "bunker", "osm_id": "846998180"}, "geometry": {"type": "Polygon", "coordinates": [[[15.2225833, 59.2497868], [15.2225546, 59.2497715], [15.2225545, 59.2497542], [15.2225388, 59.2497416], [15.2225426, 59.249721], [15.2225697, 59.2497069], [15.2226281, 59.2496995], [15.222662, 59.2497061], [15.2226738, 59.2497261], [15.222696, 59.2497427], [15.2227052, 59.2497626], [15.2226767, 59.2497793], [15.2226443, 59.24979], [15.2225833, 59.2497868]]]}}, {"type": "Feature", "properties": {"kind": "bunker", "osm_id": "846998181"}, "geometry": {"type": "Polygon", "coordinates": [[[15.2220416, 59.2495801], [15.2219878, 59.2495097], [15.221989, 59.2494924], [15.2220149, 59.2494777], [15.2220578, 59.249475], [15.2220994, 59.2494922], [15.2221088, 59.2495374], [15.2221142, 59.249564], [15.2220909, 59.2495807], [15.2220637, 59.2495827], [15.2220416, 59.2495801]]]}}, {"type": "Feature", "properties": {"kind": "bunker", "osm_id": "846998182"}, "geometry": {"type": "Polygon", "coordinates": [[[15.2206053, 59.2500356], [15.2206, 59.250013], [15.2206313, 59.2499908], [15.2206738, 59.2499869], [15.2207297, 59.2499935], [15.2208027, 59.250024], [15.2208392, 59.2500538], [15.2208355, 59.2500732], [15.2208015, 59.2500877], [15.2207482, 59.2500884], [15.2206959, 59.2500799], [15.2206438, 59.2500627], [15.2206053, 59.2500356]]]}}, {"type": "Feature", "properties": {"kind": "bunker", "osm_id": "846998183"}, "geometry": {"type": "Polygon", "coordinates": [[[15.2203812, 59.2499342], [15.2204203, 59.2499568], [15.2204594, 59.249966], [15.2205114, 59.2499696], [15.2205334, 59.2499599], [15.220541, 59.2499413], [15.2205214, 59.249916], [15.2204862, 59.2498988], [15.2204511, 59.2498882], [15.2204121, 59.2498823], [15.2203823, 59.2498923], [15.2203759, 59.2499129], [15.2203812, 59.2499342]]]}}, {"type": "Feature", "properties": {"kind": "bunker", "osm_id": "846998184"}, "geometry": {"type": "Polygon", "coordinates": [[[15.2174783, 59.2497581], [15.2174628, 59.2497715], [15.2174564, 59.2497874], [15.2174721, 59.2498027], [15.2175656, 59.2498052], [15.2176034, 59.2498158], [15.2176501, 59.2498164], [15.2176878, 59.2498117], [15.2177234, 59.2498023], [15.2177955, 59.2498025], [15.2178215, 59.2497941], [15.2178167, 59.2497642], [15.2177926, 59.2497503], [15.2177705, 59.249743], [15.2177081, 59.2497444], [15.217677, 59.2497511], [15.2176251, 59.2497539], [15.2175797, 59.2497639], [15.2175394, 59.2497627], [15.2174783, 59.2497581]]]}}, {"type": "Feature", "properties": {"kind": "green", "osm_id": "1253267807"}, "geometry": {"type": "Polygon", "coordinates": [[[15.2190409, 59.2489394], [15.2190825, 59.2489867], [15.2191919, 59.2490284], [15.2193244, 59.2490576], [15.2194476, 59.2490521], [15.2195139, 59.2490308], [15.2195385, 59.2489946], [15.2195509, 59.2489607], [15.2195185, 59.2489221], [15.2194384, 59.248889], [15.219346, 59.2488654], [15.2192474, 59.2488512], [15.2191657, 59.2488425], [15.2190887, 59.2488575], [15.2190502, 59.2488827], [15.2190348, 59.2489079], [15.2190409, 59.2489394]]]}}]}